{"fetched_at":"2026-04-05T05:47:15Z","count":17019,"tles":[{"name":"HMU-SAT2","line1":"1 67687U 98067YD  26093.88358982  .00071531  00000+0  10661-2 0  9997","line2":"2 67687  51.6307 306.3995 0008998 252.1797 107.8212 15.54393032  8622","category":"Other"},{"name":"GXIBA-1","line1":"1 67685U 98067YB  26093.81336782  .00075333  00000+0  11093-2 0  9996","line2":"2 67685  51.6298 306.6778 0012439 275.1790  84.7781 15.54660633  8699","category":"Other"},{"name":"CORAL","line1":"1 67684U 98067YA  26093.99691517  .00149965  00000+0  18559-2 0  9991","line2":"2 67684  51.6285 304.9022 0013545 269.0855  90.8586 15.58976627  8733","category":"Other"},{"name":"UITMSAT-2","line1":"1 67686U 98067YC  26093.79480319  .00085147  00000+0  12028-2 0  9993","line2":"2 67686  51.6307 306.5559 0009467 249.4305 110.5671 15.55773967  8692","category":"Other"},{"name":"LEOPARD","line1":"1 67688U 98067YE  26093.99602964  .00086711  00000+0  12463-2 0  9990","line2":"2 67688  51.6308 305.6496 0009259 250.2032 109.7961 15.55297558  8645","category":"Other"},{"name":"PROGRESS-MS 33","line1":"1 68319U 26058A   26094.06925453  .00011847  00000+0  22464-3 0  9994","line2":"2 68319  51.6326 306.8840 0006251 269.7954  90.2318 15.48758130  1250","category":"Other"},{"name":"CREW DRAGON 12","line1":"1 67796U 26031A   26094.06925453  .00011847  00000+0  22464-3 0  9993","line2":"2 67796  51.6326 306.8840 0006251 269.7954  90.2318 15.48758130560236","category":"Other"}]}